
# Worst residual: 12.06 km
# MJD 58029.000000 (2017 Oct  3  0:00)
WE0913A = DSCOVR object = 2015-007B = NORAD 40391
1 40391U 15007B   17276.49919926  .00000000  00000-0  00000-0 0    05
2 40391 083.3665 000.3305 4258569 206.7778 052.7979 00.06885383    07

# Worst residual: 67.05 km
# MJD 58030.000000 (2017 Oct  4  0:00)
WE0913A = DSCOVR object = 2015-007B = NORAD 40391
1 40391U 15007B   17277.49919926  .00000000  00000-0  00000-0 0    06
2 40391 083.3586 000.2641 4256762 207.7760 076.5383 00.06818172    01

# Worst residual: 185.21 km
# MJD 58031.000000 (2017 Oct  5  0:00)
WE0913A = DSCOVR object = 2015-007B = NORAD 40391
1 40391U 15007B   17278.49919926  .00000000  00000-0  00000-0 0    07
2 40391 082.9743 000.2790 4196333 211.8741 095.7292 00.06531892    01

# Worst residual: 127.12 km
# MJD 58032.000000 (2017 Oct  6  0:00)
WE0913A = DSCOVR object = 2015-007B = NORAD 40391
1 40391U 15007B   17279.49919926  .00000000  00000-0  00000-0 0    08
2 40391 081.4256 000.3100 4102544 215.3539 114.4795 00.06310740    09

# Worst residual: 39.15 km
# MJD 58033.000000 (2017 Oct  7  0:00)
WE0913A = DSCOVR object = 2015-007B = NORAD 40391
1 40391U 15007B   17280.49919926  .00000000  00000-0  00000-0 0    00
2 40391 080.5479 000.1331 4068628 215.8412 136.7902 00.06275805    08

# Worst residual: 9.67 km
# MJD 58034.000000 (2017 Oct  8  0:00)
WE0913A = DSCOVR object = 2015-007B = NORAD 40391
1 40391U 15007B   17281.49919926  .00000000  00000-0  00000-0 0    01
2 40391 080.3272 000.0070 4053176 215.9683 159.3507 00.06258903    01

# Worst residual: 11.52 km
# MJD 58035.000000 (2017 Oct  9  0:00)
WE0913A = DSCOVR object = 2015-007B = NORAD 40391
1 40391U 15007B   17282.49919926  .00000000  00000-0  00000-0 0    02
2 40391 080.3333 359.9674 4044776 216.1323 181.6057 00.06244417    08

# Worst residual: 11.83 km
# MJD 58036.000000 (2017 Oct 10  0:00)
WE0913A = DSCOVR object = 2015-007B = NORAD 40391
1 40391U 15007B   17283.49919926  .00000000  00000-0  00000-0 0    03
2 40391 080.3753 359.9649 4042727 216.3292 203.6606 00.06236583    07

# Worst residual: 7.11 km
# MJD 58037.000000 (2017 Oct 11  0:00)
WE0913A = DSCOVR object = 2015-007B = NORAD 40391
1 40391U 15007B   17284.49919926  .00000000  00000-0  00000-0 0    04
2 40391 080.3869 359.9482 4042371 216.4614 225.7976 00.06232169    05

# Worst residual: 15.79 km
# MJD 58038.000000 (2017 Oct 12  0:00)
WE0913A = DSCOVR object = 2015-007B = NORAD 40391
1 40391U 15007B   17285.49919926  .00000000  00000-0  00000-0 0    05
2 40391 080.3705 359.9061 4037689 216.2875 248.4211 00.06216120    03

# Worst residual: 42.89 km
# MJD 58039.000000 (2017 Oct 13  0:00)
WE0913A = DSCOVR object = 2015-007B = NORAD 40391
1 40391U 15007B   17286.49919926  .00000000  00000-0  00000-0 0    06
2 40391 080.3392 359.8676 4032790 215.4163 271.9693 00.06159449    00

# Worst residual: 85.74 km
# MJD 58040.000000 (2017 Oct 14  0:00)
WE0913A = DSCOVR object = 2015-007B = NORAD 40391
1 40391U 15007B   17287.49919926  .00000000  00000-0  00000-0 0    07
2 40391 080.2694 359.8549 4059843 213.3932 296.7744 00.06010405    02

# Worst residual: 159.58 km
# MJD 58041.000000 (2017 Oct 15  0:00)
WE0913A = DSCOVR object = 2015-007B = NORAD 40391
1 40391U 15007B   17288.49919926  .00000000  00000-0  00000-0 0    08
2 40391 080.0848 359.8181 4214235 209.9887 322.7380 00.05655280    02

# Worst residual: 345.38 km
# MJD 58042.000000 (2017 Oct 16  0:00)
WE0913A = DSCOVR object = 2015-007B = NORAD 40391
1 40391U 15007B   17289.49919926  .00000000  00000-0  00000-0 0    09
2 40391 079.6477 359.5965 4678264 207.4775 347.0069 00.04917664    06

# Worst residual: 346.96 km
# MJD 58043.000000 (2017 Oct 17  0:00)
WE0913A = DSCOVR object = 2015-007B = NORAD 40391
1 40391U 15007B   17290.49919926  .00000000  00000-0  00000-0 0    01
2 40391 079.7838 359.4645 4690619 213.3461 002.4193 00.05045552    07

# Worst residual: 161.66 km
# MJD 58044.000000 (2017 Oct 18  0:00)
WE0913A = DSCOVR object = 2015-007B = NORAD 40391
1 40391U 15007B   17291.49919926  .00000000  00000-0  00000-0 0    02
2 40391 080.1607 359.7073 4270152 215.7066 022.3219 00.05731466    04

# Worst residual: 70.34 km
# MJD 58045.000000 (2017 Oct 19  0:00)
WE0913A = DSCOVR object = 2015-007B = NORAD 40391
1 40391U 15007B   17292.49919926  .00000000  00000-0  00000-0 0    03
2 40391 080.1847 359.8759 4095217 214.6984 045.8483 00.06028301    07

# Worst residual: 26.53 km
# MJD 58046.000000 (2017 Oct 20  0:00)
WE0913A = DSCOVR object = 2015-007B = NORAD 40391
1 40391U 15007B   17293.49919926  .00000000  00000-0  00000-0 0    04
2 40391 080.0948 359.9269 4056290 213.8388 069.1919 00.06128105    08

# Worst residual: 5.31 km
# MJD 58047.000000 (2017 Oct 21  0:00)
WE0913A = DSCOVR object = 2015-007B = NORAD 40391
1 40391U 15007B   17294.49919926  .00000000  00000-0  00000-0 0    05
2 40391 080.0127 359.9007 4057034 213.6832 091.6506 00.06145553    04

# Worst residual: 12.79 km
# MJD 58048.000000 (2017 Oct 22  0:00)
WE0913A = DSCOVR object = 2015-007B = NORAD 40391
1 40391U 15007B   17295.49919926  .00000000  00000-0  00000-0 0    06
2 40391 079.9604 359.8438 4060542 213.9988 113.3792 00.06129561    01

# Worst residual: 17.43 km
# MJD 58049.000000 (2017 Oct 23  0:00)
WE0913A = DSCOVR object = 2015-007B = NORAD 40391
1 40391U 15007B   17296.49919926  .00000000  00000-0  00000-0 0    07
2 40391 079.9125 359.7777 4057141 214.5085 134.6642 00.06103249    05

# Worst residual: 18.19 km
# MJD 58050.000000 (2017 Oct 24  0:00)
WE0913A = DSCOVR object = 2015-007B = NORAD 40391
1 40391U 15007B   17297.49919926  .00000000  00000-0  00000-0 0    08
2 40391 079.8403 359.6975 4046498 215.0215 155.7759 00.06077338    08

# Worst residual: 17.12 km
# MJD 58051.000000 (2017 Oct 25  0:00)
WE0913A = DSCOVR object = 2015-007B = NORAD 40391
1 40391U 15007B   17298.49919926  .00000000  00000-0  00000-0 0    09
2 40391 079.7349 359.5882 4029658 215.4151 176.9522 00.06054763    04

# Worst residual: 16.70 km
# MJD 58052.000000 (2017 Oct 26  0:00)
WE0913A = DSCOVR object = 2015-007B = NORAD 40391
1 40391U 15007B   17299.49919926  .00000000  00000-0  00000-0 0    00
2 40391 079.6119 359.4437 4006671 215.5814 198.4160 00.06032681    02

# Worst residual: 22.43 km
# MJD 58053.000000 (2017 Oct 27  0:00)
WE0913A = DSCOVR object = 2015-007B = NORAD 40391
1 40391U 15007B   17300.49919926  .00000000  00000-0  00000-0 0    03
2 40391 079.5002 359.2790 3977745 215.3791 220.3917 00.06003303    06
